{"type": "FeatureCollection", "features": [ {"type": "Feature", "properties": {"norad_id": 39634, "name": "SENTINEL-1A", "group": "resource", "lat": -48.470981934355, "lon": 167.72085898263745, "alt_km": 703.3415974109021, "timestamp": "2025-12-17T21:39:45.365728+00:00", "meta": {"OBJECT_NAME": "SENTINEL-1A", "OBJECT_ID": "2014-016A", "EPOCH": "2025-12-17T14:01:59.838240", "MEAN_MOTION": 14.59201092, "ECCENTRICITY": 0.00012428, "INCLINATION": 98.1802, "RA_OF_ASC_NODE": 356.7551, "ARG_OF_PERICENTER": 82.4898, "MEAN_ANOMALY": 277.6443, "EPHEMERIS_TYPE": 0, "CLASSIFICATION_TYPE": "U", "NORAD_CAT_ID": 39634, "ELEMENT_SET_NO": 999, "REV_AT_EPOCH": 62353, "BSTAR": 4.237306e-05, "MEAN_MOTION_DOT": 1.54e-06, "MEAN_MOTION_DDOT": 0}, "tle": {"line1": "1 39634U 14016A   25351.58472035  .00000154  00000+0  42373-4 0  9999", "line2": "2 39634  98.1802 356.7551 0001242  82.4898 277.6443 14.59201092623530"}}, "geometry": {"type": "Point", "coordinates": [167.72085898263745, -48.470981934355]}}, {"type": "Feature", "properties": {"norad_id": 39731, "name": "KAZEOSAT 1", "group": "resource", "lat": -64.33330952117439, "lon": -134.0869040027764, "alt_km": 759.5914830478941, "timestamp": "2025-12-17T21:39:45.365737+00:00", "meta": {"OBJECT_NAME": "KAZEOSAT 1", "OBJECT_ID": "2014-024A", "EPOCH": "2025-12-17T15:31:53.363424", "MEAN_MOTION": 14.4206551, "ECCENTRICITY": 0.0001159, "INCLINATION": 98.3433, "RA_OF_ASC_NODE": 63.4445, "ARG_OF_PERICENTER": 96.8104, "MEAN_ANOMALY": 263.3218, "EPHEMERIS_TYPE": 0, "CLASSIFICATION_TYPE": "U", "NORAD_CAT_ID": 39731, "ELEMENT_SET_NO": 999, "REV_AT_EPOCH": 61239, "BSTAR": 5.7622348e-05, "MEAN_MOTION_DOT": 1.46e-06, "MEAN_MOTION_DDOT": 0}, "tle": {"line1": "1 39731U 14024A   25351.64714541  .00000146  00000+0  57622-4 0  9998", "line2": "2 39731  98.3433  63.4445 0001159  96.8104 263.3218 14.42065510612399"}}, "geometry": {"type": "Point", "coordinates": [-134.0869040027764, -64.33330952117439]}}, {"type": "Feature", "properties": {"norad_id": 39766, "name": "ALOS-2", "group": "resource", "lat": 74.15632227537517, "lon": -63.939258660485635, "alt_km": 622.98343984239, "timestamp": "2025-12-17T21:39:45.365746+00:00", "meta": {"OBJECT_NAME": "ALOS-2", "OBJECT_ID": "2014-029A", "EPOCH": "2025-12-17T14:42:09.909216", "MEAN_MOTION": 14.79473097, "ECCENTRICITY": 0.00013315, "INCLINATION": 97.9224, "RA_OF_ASC_NODE": 86.3894, "ARG_OF_PERICENTER": 95.5953, "MEAN_ANOMALY": 264.541, "EPHEMERIS_TYPE": 0, "CLASSIFICATION_TYPE": "U", "NORAD_CAT_ID": 39766, "ELEMENT_SET_NO": 999, "REV_AT_EPOCH": 62473, "BSTAR": 0.00019199921, "MEAN_MOTION_DOT": 1.383e-05, "MEAN_MOTION_DDOT": 0}, "tle": {"line1": "1 39766U 14029A   25351.61261469  .00001383  00000+0  19200-3 0  9997", "line2": "2 39766  97.9224  86.3894 0001331  95.5953 264.5410 14.79473097624733"}}, "geometry": {"type": "Point", "coordinates": [-63.939258660485635, 74.15632227537517]}}, {"type": "Feature", "properties": {"norad_id": 40010, "name": "KAZEOSAT 2", "group": "resource", "lat": 59.55329897726093, "lon": 28.9916456104089, "alt_km": 605.2358694954664, "timestamp": "2025-12-17T21:39:45.365755+00:00", "meta": {"OBJECT_NAME": "KAZEOSAT 2", "OBJECT_ID": "2014-033A", "EPOCH": "2025-12-17T14:39:28.697184", "MEAN_MOTION": 14.85178619, "ECCENTRICITY": 0.00080324, "INCLINATION": 97.5505, "RA_OF_ASC_NODE": 195.6735, "ARG_OF_PERICENTER": 189.2453, "MEAN_ANOMALY": 170.8616, "EPHEMERIS_TYPE": 0, "CLASSIFICATION_TYPE": "U", "NORAD_CAT_ID": 40010, "ELEMENT_SET_NO": 999, "REV_AT_EPOCH": 62200, "BSTAR": 0.00014267975, "MEAN_MOTION_DOT": 1.172e-05, "MEAN_MOTION_DDOT": 0}, "tle": {"line1": "1 40010U 14033A   25351.61074881  .00001172  00000+0  14268-3 0  9991", "line2": "2 40010  97.5505 195.6735 0008032 189.2453 170.8616 14.85178619622008"}}, "geometry": {"type": "Point", "coordinates": [28.9916456104089, 59.55329897726093]}}, {"type": "Feature", "properties": {"norad_id": 40011, "name": "HODOYOSHI-4", "group": "resource", "lat": -69.33347848361191, "lon": -20.029128185387744, "alt_km": 606.7042805266628, "timestamp": "2025-12-17T21:39:45.365765+00:00", "meta": {"OBJECT_NAME": "HODOYOSHI-4", "OBJECT_ID": "2014-033B", "EPOCH": "2025-12-17T14:04:56.210880", "MEAN_MOTION": 14.87497568, "ECCENTRICITY": 0.00234661, "INCLINATION": 97.5411, "RA_OF_ASC_NODE": 180.2313, "ARG_OF_PERICENTER": 184.3403, "MEAN_ANOMALY": 175.7614, "EPHEMERIS_TYPE": 0, "CLASSIFICATION_TYPE": "U", "NORAD_CAT_ID": 40011, "ELEMENT_SET_NO": 999, "REV_AT_EPOCH": 62180, "BSTAR": 7.8149831e-05, "MEAN_MOTION_DOT": 6.6e-06, "MEAN_MOTION_DDOT": 0}, "tle": {"line1": "1 40011U 14033B   25351.58676170  .00000660  00000+0  78150-4 0  9999", "line2": "2 40011  97.5411 180.2313 0023466 184.3403 175.7614 14.87497568621804"}}, "geometry": {"type": "Point", "coordinates": [-20.029128185387744, -69.33347848361191]}}, {"type": "Feature", "properties": {"norad_id": 40013, "name": "DEIMOS-2", "group": "resource", "lat": 30.007263676954395, "lon": 51.95802371537968, "alt_km": 586.5044430198486, "timestamp": "2025-12-17T21:39:45.365774+00:00", "meta": {"OBJECT_NAME": "DEIMOS-2", "OBJECT_ID": "2014-033D", "EPOCH": "2025-12-17T16:10:09.475392", "MEAN_MOTION": 14.92992417, "ECCENTRICITY": 0.00011562, "INCLINATION": 97.6064, "RA_OF_ASC_NODE": 227.3105, "ARG_OF_PERICENTER": 110.8359, "MEAN_ANOMALY": 249.2985, "EPHEMERIS_TYPE": 0, "CLASSIFICATION_TYPE": "U", "NORAD_CAT_ID": 40013, "ELEMENT_SET_NO": 999, "REV_AT_EPOCH": 61063, "BSTAR": 0.0001692061, "MEAN_MOTION_DOT": 1.704e-05, "MEAN_MOTION_DDOT": 0}, "tle": {"line1": "1 40013U 14033D   25351.67372078  .00001704  00000+0  16921-3 0  9998", "line2": "2 40013  97.6064 227.3105 0001156 110.8359 249.2985 14.92992417610635"}}, "geometry": {"type": "Point", "coordinates": [51.95802371537968, 30.007263676954395]}}, {"type": "Feature", "properties": {"norad_id": 40015, "name": "HODOYOSHI-3", "group": "resource", "lat": 53.42470280193124, "lon": -12.092197912166958, "alt_km": 614.6996153559267, "timestamp": "2025-12-17T21:39:45.365783+00:00", "meta": {"OBJECT_NAME": "HODOYOSHI-3", "OBJECT_ID": "2014-033F", "EPOCH": "2025-12-17T11:23:27.268224", "MEAN_MOTION": 14.84823051, "ECCENTRICITY": 0.00320769, "INCLINATION": 97.6202, "RA_OF_ASC_NODE": 157.1038, "ARG_OF_PERICENTER": 231.7568, "MEAN_ANOMALY": 128.0759, "EPHEMERIS_TYPE": 0, "CLASSIFICATION_TYPE": "U", "NORAD_CAT_ID": 40015, "ELEMENT_SET_NO": 999, "REV_AT_EPOCH": 62065, "BSTAR": 0.00017492566, "MEAN_MOTION_DOT": 1.446e-05, "MEAN_MOTION_DDOT": 0}, "tle": {"line1": "1 40015U 14033F   25351.47462116  .00001446  00000+0  17493-3 0  9999", "line2": "2 40015  97.6202 157.1038 0032076 231.7568 128.0759 14.84823051620650"}}, "geometry": {"type": "Point", "coordinates": [-12.092197912166958, 53.42470280193124]}}, {"type": "Feature", "properties": {"norad_id": 40053, "name": "SPOT 7", "group": "resource", "lat": 56.82754206151601, "lon": -113.57206238763328, "alt_km": 684.4681460648271, "timestamp": "2025-12-17T21:39:45.365791+00:00", "meta": {"OBJECT_NAME": "SPOT 7", "OBJECT_ID": "2014-034A", "EPOCH": "2025-12-17T16:10:23.524032", "MEAN_MOTION": 14.60740267, "ECCENTRICITY": 0.00015512, "INCLINATION": 98.0907, "RA_OF_ASC_NODE": 53.6359, "ARG_OF_PERICENTER": 84.9506, "MEAN_ANOMALY": 275.1872, "EPHEMERIS_TYPE": 0, "CLASSIFICATION_TYPE": "U", "NORAD_CAT_ID": 40053, "ELEMENT_SET_NO": 999, "REV_AT_EPOCH": 61063, "BSTAR": 9.3089736e-05, "MEAN_MOTION_DOT": 4.08e-06, "MEAN_MOTION_DDOT": 0}, "tle": {"line1": "1 40053U 14034A   25351.67388338  .00000408  00000+0  93090-4 0  9992", "line2": "2 40053  98.0907  53.6359 0001551  84.9506 275.1872 14.60740267610637"}}, "geometry": {"type": "Point", "coordinates": [-113.57206238763328, 56.82754206151601]}}, {"type": "Feature", "properties": {"norad_id": 40072, "name": "SKYSAT-B", "group": "resource", "lat": -11.083853571320246, "lon": 114.23022257951868, "alt_km": 608.0397657545582, "timestamp": "2025-12-17T21:39:45.365800+00:00", "meta": {"OBJECT_NAME": "SKYSAT-B", "OBJECT_ID": "2014-037D", "EPOCH": "2025-12-17T14:20:53.822688", "MEAN_MOTION": 14.87344577, "ECCENTRICITY": 0.00064522, "INCLINATION": 98.3617, "RA_OF_ASC_NODE": 295.5605, "ARG_OF_PERICENTER": 136.2321, "MEAN_ANOMALY": 223.9406, "EPHEMERIS_TYPE": 0, "CLASSIFICATION_TYPE": "U", "NORAD_CAT_ID": 40072, "ELEMENT_SET_NO": 999, "REV_AT_EPOCH": 61896, "BSTAR": 0.000166146, "MEAN_MOTION_DOT": 1.44e-05, "MEAN_MOTION_DDOT": 0}, "tle": {"line1": "1 40072U 14037D   25351.59784517  .00001440  00000+0  16615-3 0  9990", "line2": "2 40072  98.3617 295.5605 0006452 136.2321 223.9406 14.87344577618962"}}, "geometry": {"type": "Point", "coordinates": [114.23022257951868, -11.083853571320246]}}, {"type": "Feature", "properties": {"norad_id": 40115, "name": "WORLDVIEW-3 (WV-3)", "group": "resource", "lat": 47.105844479705816, "lon": 55.56555972494746, "alt_km": 609.6281597772913, "timestamp": "2025-12-17T21:39:45.365809+00:00", "meta": {"OBJECT_NAME": "WORLDVIEW-3 (WV-3)", "OBJECT_ID": "2014-048A", "EPOCH": "2025-12-17T14:58:55.660512", "MEAN_MOTION": 14.8552365, "ECCENTRICITY": 0.00051619, "INCLINATION": 97.8612, "RA_OF_ASC_NODE": 63.8431, "ARG_OF_PERICENTER": 169.1037, "MEAN_ANOMALY": 191.0291, "EPHEMERIS_TYPE": 0, "CLASSIFICATION_TYPE": "U", "NORAD_CAT_ID": 40115, "ELEMENT_SET_NO": 999, "REV_AT_EPOCH": 61496, "BSTAR": 0.00011282131, "MEAN_MOTION_DOT": 9.21e-06, "MEAN_MOTION_DDOT": 0}, "tle": {"line1": "1 40115U 14048A   25351.62425533  .00000921  00000+0  11282-3 0  9992", "line2": "2 40115  97.8612  63.8431 0005161 169.1037 191.0291 14.85523650614969"}}, "geometry": {"type": "Point", "coordinates": [55.56555972494746, 47.105844479705816]}}]}